{"version": 0.6, "generator": "Overpass API 0.7.62.7 375dc00a", "osm3s": {"timestamp_osm_base": "2025-06-10T09:55:30Z", "copyright": "The data included in this document is from www.openstreetmap.org. The data is made available under ODbL."}, "elements": [{"type": "node", "id": 346330972, "lat": 50.7332863, "lon": -3.4808848}, {"type": "node", "id": 361497461, "lat": 50.7210847, "lon": -3.5207594, "tags": {"addr:city": "Exeter", "addr:housenumber": "49", "addr:postcode": "EX2 4TA", "addr:street": "Magdalen Road", "brand": "Budgens", "brand:wikidata": "Q4985016", "fhrs:id": "1453278", "name": "Budgens", "opening_hours": "Mo-Su 07:00-23:00", "operator": "Motor Fuel Group", "operator:website": "https://www.motorfuelgroup.com/locations/magdalen-road-budgens-fs976/", "operator:wikidata": "Q107271358", "paypoint": "yes", "phone": "+44 1392 201318", "shop": "supermarket", "website": "https://www.budgens.co.uk/our-stores/magdalen-road"}}, {"type": "node", "id": 428591817, "lat": 50.7358376, "lon": -3.480198}, {"type": "node", "id": 428591819, "lat": 50.7353054, "lon": -3.4800274}, {"type": "node", "id": 428591820, "lat": 50.7354808, "lon": -3.4797085}, {"type": "node", "id": 481173375, "lat": 50.7066419, "lon": -3.5354482}, {"type": "node", "id": 481173391, "lat": 50.7066063, "lon": -3.5353149}, {"type": "node", "id": 481173407, "lat": 50.7068017, "lon": -3.5352023}, {"type": "node", "id": 519773392, "lat": 50.7214431, "lon": -3.5046747, "tags": {"addr:city": "Exeter", "addr:housenumber": "61-63", "addr:postcode": "EX1 2RJ", "addr:street": "Fore Street", "brand": "Co-op Food", "brand:wikidata": "Q3277439", "brand:wikipedia": "en:Co-op Food", "check_date": "2024-07-15", "check_date:opening_hours": "2024-07-15", "fhrs:id": "752391", "name": "Co-op Food", "opening_hours": "Mo-Sa 07:00-23:00; Su 10:00-16:00", "operator": "The Co-operative Group", "operator:wikidata": "Q117202", "paypoint": "yes", "phone": "+44 1392 276055", "shop": "supermarket", "toilets:wheelchair": "no", "website": "https://www.coop.co.uk/store-finder/EX1-2RJ/61-63-fore-street", "wheelchair": "yes"}}, {"type": "node", "id": 537745174, "lat": 50.7172865, "lon": -3.5410818, "tags": {"addr:city": "Exeter", "addr:county": "Devon", "addr:housename": "St Thomas Centre", "addr:housenumber": "1", "addr:postcode": "EX4 1AJ", "addr:street": "Cowick Street", "brand": "Co-op Food", "brand:wikidata": "Q3277439", "brand:wikipedia": "en:Co-op Food", "check_date": "2024-07-15", "check_date:opening_hours": "2024-07-15", "fhrs:id": "168455", "name": "Co-op Food", "opening_hours": "Mo-Sa 07:00-22:00; Su 10:00-16:00", "operator": "The Co-operative Group", "operator:wikidata": "Q117202", "shop": "supermarket", "source:addr": "FHRS Open Data", "website": "https://www.coop.co.uk/store-finder/EX4-1AJ/cowick-street", "wheelchair": "yes"}}, {"type": "node", "id": 627329804, "lat": 50.7339909, "lon": -3.5039219}, {"type": "node", "id": 627329808, "lat": 50.7336906, "lon": -3.5039659}, {"type": "node", "id": 639174733, "lat": 50.7264415, "lon": -3.5501269, "tags": {"addr:city": "Exeter", "addr:housenumber": "5-9", "addr:postcode": "EX4 2DQ", "addr:street": "Winchester Avenue", "brand": "Tesco Express", "brand:wikidata": "Q98456772", "contact:website": "https://www.tesco.com/store-locator/exeter/5-9-winchester-ave", "fhrs:id": "180717", "name": "Tesco Express", "ref:store": "6176", "shop": "supermarket"}}, {"type": "node", "id": 639576841, "lat": 50.7138886, "lon": -3.5360723}, {"type": "node", "id": 639576847, "lat": 50.7142087, "lon": -3.5354924}, {"type": "node", "id": 639576851, "lat": 50.7142843, "lon": -3.5356848}, {"type": "node", "id": 979858008, "lat": 50.7337141, "lon": -3.4799408}, {"type": "node", "id": 979858018, "lat": 50.7329743, "lon": -3.479506}, {"type": "node", "id": 979858026, "lat": 50.7326713, "lon": -3.4806163}, {"type": "node", "id": 979858036, "lat": 50.733121, "lon": -3.4808653}, {"type": "node", "id": 979858047, "lat": 50.7330787, "lon": -3.4810204}, {"type": "node", "id": 979858061, "lat": 50.7332225, "lon": -3.4811184}, {"type": "node", "id": 979858075, "lat": 50.7334297, "lon": -3.4809825}, {"type": "node", "id": 1300607127, "lat": 50.7089694, "lon": -3.4832243}, {"type": "node", "id": 1300607131, "lat": 50.7085775, "lon": -3.4815826}, {"type": "node", "id": 1300607134, "lat": 50.7088118, "lon": -3.4828406}, {"type": "node", "id": 1300607141, "lat": 50.7090417, "lon": -3.4825661}, {"type": "node", "id": 1300607147, "lat": 50.7085392, "lon": -3.4834757}, {"type": "node", "id": 1300607151, "lat": 50.7079589, "lon": -3.4825242}, {"type": "node", "id": 1343436277, "lat": 50.7135736, "lon": -3.4973615}, {"type": "node", "id": 1343436280, "lat": 50.7139362, "lon": -3.4983313, "tags": {"entrance": "main"}}, {"type": "node", "id": 1343436282, "lat": 50.7141095, "lon": -3.4979054}, {"type": "node", "id": 1488837368, "lat": 50.7168026, "lon": -3.5372279, "tags": {"addr:city": "Exeter", "addr:housename": "The Exebridge Centre", "addr:postcode": "EX4 1AH", "addr:street": "Cowick Street", "addr:unit": "4", "brand": "M&S Foodhall", "brand:wikidata": "Q714491", "brand:wikipedia": "en:Marks & Spencer", "check_date": "2024-07-21", "check_date:opening_hours": "2024-07-21", "contact:website": "https://www.marksandspencer.com/stores/exeter-exebridges-simply-food-5295", "fhrs:id": "198116", "name": "M&S Foodhall", "opening_hours": "Mo-Sa 08:00-19:00; Su 10:00-16:00", "shop": "supermarket", "source:addr": "FHRS Open Data"}}, {"type": "node", "id": 1633249647, "lat": 50.7340005, "lon": -3.5040651}, {"type": "node", "id": 1635264419, "lat": 50.7071477, "lon": -3.5364376}, {"type": "node", "id": 1652032028, "lat": 50.7080678, "lon": -3.4816708}, {"type": "node", "id": 1652032033, "lat": 50.708316, "lon": -3.4833558}, {"type": "node", "id": 1652032096, "lat": 50.7083526, "lon": -3.4835502}, {"type": "node", "id": 1652032114, "lat": 50.7082691, "lon": -3.4832592}, {"type": "node", "id": 1652032121, "lat": 50.7087814, "lon": -3.483011}, {"type": "node", "id": 1652032122, "lat": 50.7084163, "lon": -3.4832347}, {"type": "node", "id": 1652032125, "lat": 50.7080717, "lon": -3.4825386}, {"type": "node", "id": 1652032145, "lat": 50.7083736, "lon": -3.4835945}, {"type": "node", "id": 1652032149, "lat": 50.7082066, "lon": -3.4820328}, {"type": "node", "id": 1652032158, "lat": 50.7086582, "lon": -3.4833588}, {"type": "node", "id": 1652032166, "lat": 50.708852, "lon": -3.4829317}, {"type": "node", "id": 1652032173, "lat": 50.7081266, "lon": -3.4831386}, {"type": "node", "id": 1652032177, "lat": 50.7085131, "lon": -3.4834288}, {"type": "node", "id": 1652032181, "lat": 50.7082158, "lon": -3.4833282}, {"type": "node", "id": 1652032195, "lat": 50.7080003, "lon": -3.481753}, {"type": "node", "id": 1652032198, "lat": 50.7083534, "lon": -3.4834867}, {"type": "node", "id": 1652032210, "lat": 50.7087306, "lon": -3.4835072}, {"type": "node", "id": 1652032214, "lat": 50.7084679, "lon": -3.4833377}, {"type": "node", "id": 1652032223, "lat": 50.708284, "lon": -3.4829547}, {"type": "node", "id": 1652237262, "lat": 50.7240805, "lon": -3.5144102}, {"type": "node", "id": 1652237264, "lat": 50.7241106, "lon": -3.515465}, {"type": "node", "id": 1652237270, "lat": 50.7237659, "lon": -3.5150345}, {"type": "node", "id": 1652237282, "lat": 50.7243016, "lon": -3.5151633}, {"type": "node", "id": 1652237290, "lat": 50.7244561, "lon": -3.5148829}, {"type": "node", "id": 1652237295, "lat": 50.7243942, "lon": -3.515178}, {"type": "node", "id": 1652237305, "lat": 50.7242736, "lon": -3.5151324}, {"type": "node", "id": 1652237308, "lat": 50.7243857, "lon": -3.5150157}, {"type": "node", "id": 1652237354, "lat": 50.7243951, "lon": -3.5150693}, {"type": "node", "id": 1735152124, "lat": 50.7332037, "lon": -3.4795929}, {"type": "node", "id": 1735152192, "lat": 50.7329848, "lon": -3.4807724}, {"type": "node", "id": 1735152292, "lat": 50.7329716, "lon": -3.4808208}, {"type": "node", "id": 1735152321, "lat": 50.7331878, "lon": -3.4796514}, {"type": "node", "id": 1774921253, "lat": 50.7340626, "lon": -3.5040592}, {"type": "node", "id": 1970185189, "lat": 50.7015016, "lon": -3.5318113}, {"type": "node", "id": 1970185192, "lat": 50.7017312, "lon": -3.5312945}, {"type": "node", "id": 1970185195, "lat": 50.7016216, "lon": -3.5308901}, {"type": "node", "id": 1970185198, "lat": 50.7016467, "lon": -3.5313516}, {"type": "node", "id": 1970185200, "lat": 50.7017295, "lon": -3.5316574}, {"type": "node", "id": 1970185202, "lat": 50.7013092, "lon": -3.5311012}, {"type": "node", "id": 1987740889, "lat": 50.7134922, "lon": -3.4975615}, {"type": "node", "id": 2028426028, "lat": 50.7340966, "lon": -3.5040543}, {"type": "node", "id": 2032200448, "lat": 50.7338731, "lon": -3.5026409}, {"type": "node", "id": 2032200451, "lat": 50.7340043, "lon": -3.5028496}, {"type": "node", "id": 2032200457, "lat": 50.7338378, "lon": -3.5026459}, {"type": "node", "id": 2032200458, "lat": 50.7341842, "lon": -3.5039132}, {"type": "node", "id": 2032200459, "lat": 50.7339985, "lon": -3.5027465}, {"type": "node", "id": 2032200462, "lat": 50.7338801, "lon": -3.5027633}, {"type": "node", "id": 2032200464, "lat": 50.7341714, "lon": -3.5035571}, {"type": "node", "id": 2032200466, "lat": 50.7341398, "lon": -3.5040481}, {"type": "node", "id": 2032200468, "lat": 50.7336076, "lon": -3.5024901}, {"type": "node", "id": 2032200475, "lat": 50.7338272, "lon": -3.502459}, {"type": "node", "id": 2032200477, "lat": 50.7341302, "lon": -3.5028318}, {"type": "node", "id": 2249296607, "lat": 50.7353821, "lon": -3.4801327, "tags": {"entrance": "main"}}, {"type": "node", "id": 2560157486, "lat": 50.7204842, "lon": -3.549748}, {"type": "node", "id": 2560157495, "lat": 50.7205915, "lon": -3.5495979}, {"type": "node", "id": 2560157497, "lat": 50.7206522, "lon": -3.5497037}, {"type": "node", "id": 2560157500, "lat": 50.7206069, "lon": -3.5497684}, {"type": "node", "id": 2560157503, "lat": 50.7206284, "lon": -3.5498059}, {"type": "node", "id": 4460190309, "lat": 50.6914399, "lon": -3.4790213}, {"type": "node", "id": 4460190310, "lat": 50.6912275, "lon": -3.4787314}, {"type": "node", "id": 4460190315, "lat": 50.6916441, "lon": -3.478203}, {"type": "node", "id": 4460191790, "lat": 50.6918313, "lon": -3.4785825}, {"type": "node", "id": 5192117433, "lat": 50.7341331, "lon": -3.5039224}, {"type": "node", "id": 5215101458, "lat": 50.7233814, "lon": -3.5338692}, {"type": "node", "id": 5215101462, "lat": 50.7231934, "lon": -3.5335488}, {"type": "node", "id": 5215101468, "lat": 50.7233853, "lon": -3.5334661}, {"type": "node", "id": 5215101469, "lat": 50.7233104, "lon": -3.5333489}, {"type": "node", "id": 5215101470, "lat": 50.7237355, "lon": -3.5332676}, {"type": "node", "id": 5215122720, "lat": 50.7234321, "lon": -3.5339427}, {"type": "node", "id": 5215123824, "lat": 50.7237844, "lon": -3.5333375}, {"type": "node", "id": 5215167514, "lat": 50.7236081, "lon": -3.5330816}, {"type": "node", "id": 5794049213, "lat": 50.691289, "lon": -3.4788496}, {"type": "node", "id": 5794049214, "lat": 50.6913276, "lon": -3.4788051}, {"type": "node", "id": 5794049215, "lat": 50.6916192, "lon": -3.4787998}, {"type": "node", "id": 5794049216, "lat": 50.6916361, "lon": -3.4788288}, {"type": "node", "id": 6595074080, "lat": 50.7364717, "lon": -3.4793714}, {"type": "node", "id": 6595074081, "lat": 50.735921, "lon": -3.4786957}, {"type": "node", "id": 6595074082, "lat": 50.7361961, "lon": -3.4781539}, {"type": "node", "id": 6595074083, "lat": 50.7363132, "lon": -3.4780144}, {"type": "node", "id": 6595074084, "lat": 50.7365067, "lon": -3.4777864}, {"type": "node", "id": 6595142085, "lat": 50.7365763, "lon": -3.4777167}, {"type": "node", "id": 6595142086, "lat": 50.7367104, "lon": -3.4779715}, {"type": "node", "id": 6595142087, "lat": 50.7367908, "lon": -3.4782333}, {"type": "node", "id": 6595142088, "lat": 50.7368037, "lon": -3.478304}, {"type": "node", "id": 6595142090, "lat": 50.7368347, "lon": -3.4784245}, {"type": "node", "id": 6782676916, "lat": 50.7205683, "lon": -3.5498975}, {"type": "node", "id": 6782676917, "lat": 50.7206089, "lon": -3.5498405}, {"type": "node", "id": 6782676926, "lat": 50.7205162, "lon": -3.549703}, {"type": "node", "id": 6859120232, "lat": 50.733478, "lon": -3.4797798}, {"type": "node", "id": 6859120258, "lat": 50.7331194, "lon": -3.4796049}, {"type": "node", "id": 7813775289, "lat": 50.7340812, "lon": -3.5040565}, {"type": "node", "id": 8243411168, "lat": 50.7136695, "lon": -3.5355144}, {"type": "node", "id": 8243411169, "lat": 50.7139658, "lon": -3.5352241}, {"type": "node", "id": 8243411170, "lat": 50.7141708, "lon": -3.5355296}, {"type": "node", "id": 8243411173, "lat": 50.7094387, "lon": -3.5365849, "tags": {"addr:city": "Exeter", "addr:housename": "Stone Lane Retail Park", "addr:postcode": "EX2 8LH", "addr:street": "Marsh Barton Road", "addr:unit": "3", "brand": "The Food Warehouse", "brand:wikidata": "Q87263899", "name": "The Food Warehouse", "opening_hours": "Mo-Sa 08:00-21:00; Su 10:00-16:00", "phone": "+44 1392 423863", "shop": "supermarket", "website": "https://www.thefoodwarehouse.com/store-locator/exeter"}}, {"type": "node", "id": 8712093065, "lat": 50.7134429, "lon": -3.4978307}, {"type": "node", "id": 8712093066, "lat": 50.7135349, "lon": -3.4976048}, {"type": "node", "id": 9379151276, "lat": 50.708842, "lon": -3.4831367}, {"type": "node", "id": 9379151277, "lat": 50.7088942, "lon": -3.4830751}, {"type": "node", "id": 10111857406, "lat": 50.7233953, "lon": -3.533841}, {"type": "node", "id": 10121629251, "lat": 50.7086717, "lon": -3.48178, "tags": {"entrance": "main"}}, {"type": "node", "id": 10263559527, "lat": 50.7356621, "lon": -3.4805171}, {"type": "node", "id": 10675950599, "lat": 50.7364382, "lon": -3.479398}, {"type": "node", "id": 10675950602, "lat": 50.736193, "lon": -3.479065}, {"type": "node", "id": 10726404803, "lat": 50.7063948, "lon": -3.5359341}, {"type": "node", "id": 10726404816, "lat": 50.7064781, "lon": -3.5366751}, {"type": "node", "id": 10726404818, "lat": 50.7064564, "lon": -3.5366897}, {"type": "node", "id": 10726404819, "lat": 50.7065046, "lon": -3.5368679}, {"type": "node", "id": 10726404820, "lat": 50.7064974, "lon": -3.5366621}, {"type": "node", "id": 10726404821, "lat": 50.7065456, "lon": -3.5368402}, {"type": "node", "id": 10726404822, "lat": 50.707124, "lon": -3.5362497}, {"type": "node", "id": 10726404823, "lat": 50.7068259, "lon": -3.5351855}, {"type": "node", "id": 10726404824, "lat": 50.7070998, "lon": -3.5362666}, {"type": "node", "id": 10726404850, "lat": 50.7064292, "lon": -3.5361739}, {"type": "node", "id": 10726404851, "lat": 50.7064519, "lon": -3.5361467}, {"type": "node", "id": 10726404852, "lat": 50.7064147, "lon": -3.5363561}, {"type": "node", "id": 10726404853, "lat": 50.7066455, "lon": -3.5372095}, {"type": "node", "id": 10726404854, "lat": 50.7064095, "lon": -3.5362586}, {"type": "node", "id": 10726404855, "lat": 50.7071669, "lon": -3.5368362}, {"type": "node", "id": 10726404856, "lat": 50.7063228, "lon": -3.5356658}, {"type": "node", "id": 10946371057, "lat": 50.7365915, "lon": -3.477743}, {"type": "node", "id": 10946371062, "lat": 50.7366674, "lon": -3.4788522}, {"type": "node", "id": 10946371064, "lat": 50.7367774, "lon": -3.4781734}, {"type": "node", "id": 10946371065, "lat": 50.7366391, "lon": -3.477836}, {"type": "node", "id": 12794021026, "lat": 50.7140924, "lon": -3.5353299}, {"type": "node", "id": 12794021027, "lat": 50.714031, "lon": -3.53539}, {"type": "node", "id": 12794021028, "lat": 50.7138131, "lon": -3.53588}, {"type": "way", "id": 36861691, "nodes": [428591817, 10263559527, 2249296607, 428591819, 428591820, 428591817], "tags": {"addr:city": "Exeter", "addr:postcode": "EX4 8JD", "addr:street": "Exhibition Way", "alt_name": "ALDI Pinhoe", "brand": "ALDI", "brand:wikidata": "Q41171672", "brand:wikipedia": "en:Aldi", "building": "supermarket", "fhrs:id": "1417767", "name": "ALDI", "opening_hours": "Mo-Tu 07:00-22:00; We-Sa 08:00-22:00; Su 09:30-16:00", "operator": "ALDI", "shop": "supermarket", "website": "https://stores.aldi.co.uk/south-west/exeter/exhibition-way"}}, {"type": "way", "id": 40022293, "nodes": [10726404852, 10726404854, 10726404850, 10726404851, 10726404803, 10726404856, 481173375, 481173391, 481173407, 10726404823, 10726404822, 10726404824, 1635264419, 10726404855, 10726404853, 10726404821, 10726404819, 10726404818, 10726404816, 10726404820, 10726404852], "tags": {"addr:city": "Exeter", "addr:postcode": "EX2 8NH", "addr:street": "Alphington Road", "alt_name": "Sainsbury's Alphington Road Superstore", "brand": "Sainsbury's", "brand:wikidata": "Q152096", "brand:wikipedia": "en:Sainsbury's", "building": "yes", "fhrs:id": "160578;160580", "name": "Sainsbury's", "opening_hours": "Mo-Fr 07:00-23:00; Sa 07:00-22:00; Su 10:00-16:00", "operator": "Sainsbury's", "phone": "+44 1392 210707", "shop": "supermarket", "website": "https://stores.sainsburys.co.uk/2010/alphington-road", "wheelchair": "yes"}}, {"type": "way", "id": 50339209, "nodes": [639576841, 639576851, 639576847, 8243411170, 12794021026, 12794021027, 8243411169, 8243411168, 12794021028, 639576841], "tags": {"addr:city": "Exeter", "addr:housename": "Alphington Road Retail Park", "addr:postcode": "EX2 8HP", "addr:street": "Alphington Road", "alt_name": "ALDI Exeter", "brand": "ALDI", "brand:wikidata": "Q41171672", "brand:wikipedia": "en:Aldi", "building": "retail", "contact:website": "https://stores.aldi.co.uk/exeter/alphington-road", "fhrs:id": "939040", "name": "ALDI", "opening_hours": "Mo-Sa 08:00-22:00; Su 10:00-16:00", "shop": "supermarket"}}, {"type": "way", "id": 84235131, "nodes": [979858008, 6859120232, 1735152124, 1735152321, 6859120258, 979858018, 979858026, 1735152292, 1735152192, 979858036, 979858047, 979858061, 346330972, 979858075, 979858008], "tags": {"addr:city": "Exeter", "addr:housenumber": "1", "addr:postcode": "EX1 3PF", "addr:street": "Hill Barton Road", "alt_name": "Sainsbury's Pinhoe Road Superstore", "brand": "Sainsbury's", "brand:wikidata": "Q152096", "brand:wikipedia": "en:Sainsbury's", "building": "yes", "fhrs:id": "164512", "name": "Sainsbury's", "opening_hours": "Mo-Sa 07:00-22:00; Su 10:00-16:00", "operator": "Sainsbury's Supermarkets Ltd.", "phone": "+44 1392 460669", "shop": "supermarket", "source:addr": "FHRS Open Data", "website": "https://stores.sainsburys.co.uk/0682/pinhoe-road", "wheelchair": "yes"}}, {"type": "way", "id": 114939177, "nodes": [1300607141, 10121629251, 1300607131, 1652032149, 1652032028, 1652032195, 1300607151, 1652032125, 1652032223, 1652032173, 1652032181, 1652032114, 1652032033, 1652032122, 1652032214, 1652032198, 1652032096, 1652032145, 1652032177, 1300607147, 1652032158, 1652032210, 1300607127, 9379151277, 9379151276, 1652032121, 1652032166, 1300607134, 1300607141], "tags": {"addr:city": "Exeter", "addr:housename": "Exeter Vale Shopping Centre", "addr:postcode": "EX2 7EZ", "addr:street": "Russell Way", "alt_name": "Tesco Exeter Vale Extra", "brand": "Tesco Extra", "brand:wikidata": "Q25172225", "brand:wikipedia": "en:Tesco Extra", "building": "retail", "fhrs:id": "167716", "name": "Tesco Extra", "opening_hours": "Mo-Sa 06:00- 24:00; Su 10:00-16:00", "shop": "supermarket", "website": "https://www.tesco.com/store-locator/exeter/russell-way"}}, {"type": "way", "id": 119621860, "nodes": [1343436280, 8712093065, 8712093066, 1987740889, 1343436277, 1343436282, 1343436280], "tags": {"addr:city": "Exeter", "addr:postcode": "EX2 6NF", "addr:street": "Burnthouse Lane", "addr:suburb": "Wonford", "brand": "Lidl", "brand:wikidata": "Q151954", "brand:wikipedia": "en:Lidl", "building": "retail", "fhrs:id": "941478", "name": "Lidl", "opening_hours": "Mo-Sa 07:00-22:00; Su 10:00-16:00; PH 08:00-20:00", "shop": "supermarket", "toilets:wheelchair": "no", "website": "https://www.lidl.co.uk/s/en-GB/store-finder/exeter/burnthouse-lane/", "wheelchair": "yes"}}, {"type": "way", "id": 152407173, "nodes": [1652237290, 1652237262, 1652237270, 1652237264, 1652237305, 1652237282, 1652237295, 1652237354, 1652237308, 1652237290], "tags": {"addr:city": "Exeter", "addr:county": "Devon", "addr:housenumber": "2", "addr:postcode": "EX1 2EB", "addr:street": "Gladstone Road", "alt_name": "Waitrose Exeter", "brand": "Waitrose", "brand:wikidata": "Q771734", "brand:wikipedia": "en:Waitrose & Partners", "building": "yes", "fhrs:id": "298581", "name": "Waitrose", "official_name": "Waitrose & Partners", "opening_hours": "Mo-Sa 07:30-21:30; Su 11:00-17:00", "operator": "Waitrose & Partners", "shop": "supermarket", "source:addr": "FHRS Open Data", "website": "https://www.waitrose.com/find-a-store/exeter", "wheelchair": "yes"}}, {"type": "way", "id": 186341412, "nodes": [1970185189, 1970185202, 1970185195, 1970185192, 1970185198, 1970185200, 1970185189], "tags": {"addr:city": "Exeter", "addr:postcode": "EX2 8TT", "addr:street": "Powlesland Road", "alt_name": "LIDL Alphington", "brand": "Lidl", "brand:wikidata": "Q151954", "brand:wikipedia": "en:Lidl", "building": "yes", "fhrs:authority": "Exeter City", "fhrs:businesstype": "Retailers - supermarkets/hypermarkets", "fhrs:id": "180804", "fhrs:local_authority_id": "PI/000067126", "fhrs:rating": "5", "name": "Lidl", "shop": "supermarket", "website": "https://www.lidl.co.uk/s/en-GB/store-finder/exeter/alphington/powlesland-road-off-alphington-rd/"}}, {"type": "way", "id": 192676156, "nodes": [2032200468, 627329808, 627329804, 1633249647, 1774921253, 7813775289, 2028426028, 2032200466, 5192117433, 2032200458, 2032200464, 2032200477, 2032200451, 2032200459, 2032200462, 2032200448, 2032200457, 2032200475, 2032200468], "tags": {"addr:city": "Exeter", "addr:postcode": "EX4 7BY", "addr:street": "Prince Charles Road", "brand": "Morrisons", "brand:wikidata": "Q922344", "brand:wikipedia": "en:Morrisons", "building": "yes", "fhrs:id": "172528", "name": "Morrisons", "shop": "supermarket", "website": "https://my.morrisons.com/storefinder/496/exeter", "wheelchair": "yes"}}, {"type": "way", "id": 249410908, "nodes": [2560157486, 6782676926, 2560157495, 2560157497, 2560157500, 2560157503, 6782676917, 6782676916, 2560157486], "tags": {"addr:city": "Exeter", "addr:postcode": "EX4 1QT", "addr:street": "Isleworth Road", "brand": "Co-op Food", "brand:wikidata": "Q3277439", "brand:wikipedia": "en:Co-op Food", "building": "yes", "building:levels": "2", "check_date:opening_hours": "2023-09-08", "name": "Co-op Food", "opening_hours": "Mo-Su 06:30-22:00", "operator": "The Southern Co-operative", "operator:wikidata": "Q7569773", "roof:shape": "gabled", "shop": "supermarket", "website": "https://stores.southern.coop/devon/exeter/103-buddle-lane.html"}}, {"type": "way", "id": 449048785, "nodes": [4460191790, 5794049216, 5794049215, 4460190309, 5794049214, 5794049213, 4460190310, 4460190315, 4460191790], "tags": {"addr:city": "Exeter", "addr:postcode": "EX2 7DT", "addr:street": "Exeter Road", "brand": "ALDI", "brand:wikidata": "Q41171672", "brand:wikipedia": "en:Aldi", "building": "yes", "contact:website": "https://stores.aldi.co.uk/topsham/exeter-road", "name": "ALDI", "shop": "supermarket"}}, {"type": "way", "id": 538847877, "nodes": [5215101462, 5215101469, 5215101468, 5215167514, 5215101470, 5215123824, 5215122720, 5215101458, 10111857406, 5215101462], "tags": {"addr:city": "Exeter", "addr:housename": "Guildhall Shopping Centre", "addr:postcode": "EX4 3HH", "brand": "Sainsbury's", "brand:wikidata": "Q152096", "brand:wikipedia": "en:Sainsbury's", "fhrs:id": "163827", "indoor": "room", "level": "0", "name": "Sainsbury's", "opening_hours": "Mo-Fr 08:00-19:00; Sa 07:30-19:00; Su 11:00-17:00", "room": "shop", "shop": "supermarket", "source": "sainsburys.com", "source:addr": "FHRS Open Data", "website": "https://stores.sainsburys.co.uk/0799/exeter", "wheelchair": "yes"}}, {"type": "way", "id": 702301085, "nodes": [6595074080, 10675950599, 10675950602, 6595074081, 6595074082, 6595074083, 6595074084, 6595142085, 10946371057, 10946371065, 6595142086, 10946371064, 6595142087, 6595142088, 6595142090, 10946371062, 6595074080], "tags": {"brand": "Lidl", "brand:wikidata": "Q151954", "landuse": "retail", "name": "Lidl", "operator": "Lidl", "shop": "supermarket", "website": "https://www.lidl.co.uk/s/en-GB/store-finder/exeter/venny-bridge-road/"}}]}